t_start = 0
t_end = 1209600
dt_initial = 0.01
checkpoint_interval = 600.0
angular_velocity = [ 0.9069, 0.9069, 0.9069,]
stepper_function = 1
[[_sweep_history]]
variable = "rod_volume"
value = 2.868421052631579e-7
timestamp = "2026-03-05T18:24:37.234064+00:00"

[satellite]
mass = 1.3
[[satellite.rods]]
volume = 2.868421052631579e-7
orientation = [ 1.0, 0.0, 0.0,]

[[satellite.rods]]
volume = 2.868421052631579e-7
orientation = [ 0.0, 1.0, 0.0,]

[orbit]
semi_major_axis = 6778137.0
eccentricity = 0.001
inclination = 1.684243
raan = 0.0
arg_of_periapsis = 0.0
mean_anomaly = 0.0

[environment]
start_year_decimal = 2027.5
gravity_model_degree = 12
gravity_model_order = 12

[observer]
exclude_elements = false
exclude_magnitudes = false

[_sweep_metadata]
variable = "rod_volume"
value = 2.868421052631579e-7

[satellite.hysteresis]
ms = 986760.65
alpha = 4e-6
a = 1.9735
c = 0.05
k = 0.75

[satellite.uniform]
dimensions = [ 0.1, 0.1, 0.1,]
drag_coefficient = 2.2
specular_reflection_coefficient = 0.1
diffuse_reflection_coefficient = 0.2

[satellite.magnet]
remanence = 1.3
relative_permeability = 1.05
orientation = [ 0.0, 0.0, 1.0,]

[satellite.magnet.cylindrical]
length = 0.016
radius = 0.002
